STARLINK-36673          
1 67660U 26022N   26043.50002314 -.01600388  00000+0 -68234-2 0  9999
2 67660  97.2814  76.2191 0001220  98.6998 222.3762 15.87817637  2849
STARLINK-36674          
1 67661U 26022P   26043.50002314 -.01593235  00000+0 -67355-2 0  9995
2 67661  97.2816  76.2209 0001224 102.1123 222.5863 15.87975365  2844
STARLINK-36700          
1 67662U 26022Q   26043.50002314 -.01588551  00000+0 -65755-2 0  9993
2 67662  97.2810  76.2246 0001258 100.7942 233.1523 15.88389324  2846
STARLINK-36675          
1 67663U 26022R   26043.50002314 -.01589231  00000+0 -66465-2 0  9999
2 67663  97.2812  76.2225 0001257  98.0722 231.2971 15.88184176  2844
STARLINK-36404          
1 67664U 26022S   26043.50002314 -.01579926  00000+0 -64671-2 0  9997
2 67664  97.2803  76.2256 0001233  94.1823 244.4107 15.88597776  2810
STARLINK-36399          
1 67665U 26022T   26043.50002314 -.01581303  00000+0 -64259-2 0  9992
2 67665  97.2802  76.2276 0001213 101.0304 240.9560 15.88744835  2816
STARLINK-36365          
1 67666U 26022U   26043.50002314 -.01545353  00000+0 -63371-2 0  9992
2 67666  97.2803  76.2301 0001228  96.0336 251.1554 15.88983872  2847
STARLINK-36622          
1 67667U 26022V   26043.50002314 -.01541758  00000+0 -62389-2 0  9996
2 67667  97.2800  76.2322 0001206  97.4996 255.1444 15.89239110  2843
STARLINK-36625          
1 67668U 26022W   26043.50002314 -.01766539  84308-3 -61363-2 0  9991
2 67668  97.2795  76.2346 0001175  96.2300 262.3429 15.89514624  2843
STARLINK-36639          
1 67669U 26022X   26043.50002314 -.01762998  84212-3 -60435-2 0  9990
2 67669  97.2795  76.2373 0001208  92.2481 271.9813 15.89778549  2848
STARLINK-36596          
1 67670U 26022Y   26043.50002314 -.01753860  83574-3 -59489-2 0  9997
2 67670  97.2790  76.2388 0001220  96.3840 272.5406 15.89988470  2840
STARLINK-36297          
1 67671U 26022Z   26043.50002314 -.01747336  83285-3 -58226-2 0  9996
2 67671  97.2786  76.2420 0001242  87.3342 289.4164 15.90340361  2845
