CCSDS_OMM_VERS = 2.0
CREATION_DATE  = 
ORIGINATOR     = 

OBJECT_NAME    = STARLINK-36673
OBJECT_ID      = 2026-022N
CENTER_NAME    = EARTH
REF_FRAME      = TEME
TIME_SYSTEM    = UTC
MEAN_ELEMENT_THEORY = SGP/SGP4

EPOCH          = 2026-02-12T12:00:01.999296
MEAN_MOTION    = 15.87817637
ECCENTRICITY   = .000122
INCLINATION    = 97.2814
RA_OF_ASC_NODE = 76.2191
ARG_OF_PERICENTER = 98.6998
MEAN_ANOMALY   = 222.3762

EPHEMERIS_TYPE = 0
CLASSIFICATION_TYPE = U
NORAD_CAT_ID   = 67660
ELEMENT_SET_NO = 999
REV_AT_EPOCH   = 284
BSTAR          = -.68234E-2
MEAN_MOTION_DOT = -.1600388E-1
MEAN_MOTION_DDOT = 0

CCSDS_OMM_VERS = 2.0
CREATION_DATE  = 
ORIGINATOR     = 

OBJECT_NAME    = STARLINK-36674
OBJECT_ID      = 2026-022P
CENTER_NAME    = EARTH
REF_FRAME      = TEME
TIME_SYSTEM    = UTC
MEAN_ELEMENT_THEORY = SGP/SGP4

EPOCH          = 2026-02-12T12:00:01.999296
MEAN_MOTION    = 15.87975365
ECCENTRICITY   = .0001224
INCLINATION    = 97.2816
RA_OF_ASC_NODE = 76.2209
ARG_OF_PERICENTER = 102.1123
MEAN_ANOMALY   = 222.5863

EPHEMERIS_TYPE = 0
CLASSIFICATION_TYPE = U
NORAD_CAT_ID   = 67661
ELEMENT_SET_NO = 999
REV_AT_EPOCH   = 284
BSTAR          = -.67355E-2
MEAN_MOTION_DOT = -.1593235E-1
MEAN_MOTION_DDOT = 0

CCSDS_OMM_VERS = 2.0
CREATION_DATE  = 
ORIGINATOR     = 

OBJECT_NAME    = STARLINK-36700
OBJECT_ID      = 2026-022Q
CENTER_NAME    = EARTH
REF_FRAME      = TEME
TIME_SYSTEM    = UTC
MEAN_ELEMENT_THEORY = SGP/SGP4

EPOCH          = 2026-02-12T12:00:01.999296
MEAN_MOTION    = 15.88389324
ECCENTRICITY   = .0001258
INCLINATION    = 97.2810
RA_OF_ASC_NODE = 76.2246
ARG_OF_PERICENTER = 100.7942
MEAN_ANOMALY   = 233.1523

EPHEMERIS_TYPE = 0
CLASSIFICATION_TYPE = U
NORAD_CAT_ID   = 67662
ELEMENT_SET_NO = 999
REV_AT_EPOCH   = 284
BSTAR          = -.65755E-2
MEAN_MOTION_DOT = -.1588551E-1
MEAN_MOTION_DDOT = 0

CCSDS_OMM_VERS = 2.0
CREATION_DATE  = 
ORIGINATOR     = 

OBJECT_NAME    = STARLINK-36675
OBJECT_ID      = 2026-022R
CENTER_NAME    = EARTH
REF_FRAME      = TEME
TIME_SYSTEM    = UTC
MEAN_ELEMENT_THEORY = SGP/SGP4

EPOCH          = 2026-02-12T12:00:01.999296
MEAN_MOTION    = 15.88184176
ECCENTRICITY   = .0001257
INCLINATION    = 97.2812
RA_OF_ASC_NODE = 76.2225
ARG_OF_PERICENTER = 98.0722
MEAN_ANOMALY   = 231.2971

EPHEMERIS_TYPE = 0
CLASSIFICATION_TYPE = U
NORAD_CAT_ID   = 67663
ELEMENT_SET_NO = 999
REV_AT_EPOCH   = 284
BSTAR          = -.66465E-2
MEAN_MOTION_DOT = -.1589231E-1
MEAN_MOTION_DDOT = 0

CCSDS_OMM_VERS = 2.0
CREATION_DATE  = 
ORIGINATOR     = 

OBJECT_NAME    = STARLINK-36404
OBJECT_ID      = 2026-022S
CENTER_NAME    = EARTH
REF_FRAME      = TEME
TIME_SYSTEM    = UTC
MEAN_ELEMENT_THEORY = SGP/SGP4

EPOCH          = 2026-02-12T12:00:01.999296
MEAN_MOTION    = 15.88597776
ECCENTRICITY   = .0001233
INCLINATION    = 97.2803
RA_OF_ASC_NODE = 76.2256
ARG_OF_PERICENTER = 94.1823
MEAN_ANOMALY   = 244.4107

EPHEMERIS_TYPE = 0
CLASSIFICATION_TYPE = U
NORAD_CAT_ID   = 67664
ELEMENT_SET_NO = 999
REV_AT_EPOCH   = 281
BSTAR          = -.64671E-2
MEAN_MOTION_DOT = -.1579926E-1
MEAN_MOTION_DDOT = 0

CCSDS_OMM_VERS = 2.0
CREATION_DATE  = 
ORIGINATOR     = 

OBJECT_NAME    = STARLINK-36399
OBJECT_ID      = 2026-022T
CENTER_NAME    = EARTH
REF_FRAME      = TEME
TIME_SYSTEM    = UTC
MEAN_ELEMENT_THEORY = SGP/SGP4

EPOCH          = 2026-02-12T12:00:01.999296
MEAN_MOTION    = 15.88744835
ECCENTRICITY   = .0001213
INCLINATION    = 97.2802
RA_OF_ASC_NODE = 76.2276
ARG_OF_PERICENTER = 101.0304
MEAN_ANOMALY   = 240.9560

EPHEMERIS_TYPE = 0
CLASSIFICATION_TYPE = U
NORAD_CAT_ID   = 67665
ELEMENT_SET_NO = 999
REV_AT_EPOCH   = 281
BSTAR          = -.64259E-2
MEAN_MOTION_DOT = -.1581303E-1
MEAN_MOTION_DDOT = 0

CCSDS_OMM_VERS = 2.0
CREATION_DATE  = 
ORIGINATOR     = 

OBJECT_NAME    = STARLINK-36365
OBJECT_ID      = 2026-022U
CENTER_NAME    = EARTH
REF_FRAME      = TEME
TIME_SYSTEM    = UTC
MEAN_ELEMENT_THEORY = SGP/SGP4

EPOCH          = 2026-02-12T12:00:01.999296
MEAN_MOTION    = 15.88983872
ECCENTRICITY   = .0001228
INCLINATION    = 97.2803
RA_OF_ASC_NODE = 76.2301
ARG_OF_PERICENTER = 96.0336
MEAN_ANOMALY   = 251.1554

EPHEMERIS_TYPE = 0
CLASSIFICATION_TYPE = U
NORAD_CAT_ID   = 67666
ELEMENT_SET_NO = 999
REV_AT_EPOCH   = 284
BSTAR          = -.63371E-2
MEAN_MOTION_DOT = -.1545353E-1
MEAN_MOTION_DDOT = 0

CCSDS_OMM_VERS = 2.0
CREATION_DATE  = 
ORIGINATOR     = 

OBJECT_NAME    = STARLINK-36622
OBJECT_ID      = 2026-022V
CENTER_NAME    = EARTH
REF_FRAME      = TEME
TIME_SYSTEM    = UTC
MEAN_ELEMENT_THEORY = SGP/SGP4

EPOCH          = 2026-02-12T12:00:01.999296
MEAN_MOTION    = 15.89239110
ECCENTRICITY   = .0001206
INCLINATION    = 97.2800
RA_OF_ASC_NODE = 76.2322
ARG_OF_PERICENTER = 97.4996
MEAN_ANOMALY   = 255.1444

EPHEMERIS_TYPE = 0
CLASSIFICATION_TYPE = U
NORAD_CAT_ID   = 67667
ELEMENT_SET_NO = 999
REV_AT_EPOCH   = 284
BSTAR          = -.62389E-2
MEAN_MOTION_DOT = -.1541758E-1
MEAN_MOTION_DDOT = 0

CCSDS_OMM_VERS = 2.0
CREATION_DATE  = 
ORIGINATOR     = 

OBJECT_NAME    = STARLINK-36625
OBJECT_ID      = 2026-022W
CENTER_NAME    = EARTH
REF_FRAME      = TEME
TIME_SYSTEM    = UTC
MEAN_ELEMENT_THEORY = SGP/SGP4

EPOCH          = 2026-02-12T12:00:01.999296
MEAN_MOTION    = 15.89514624
ECCENTRICITY   = .0001175
INCLINATION    = 97.2795
RA_OF_ASC_NODE = 76.2346
ARG_OF_PERICENTER = 96.2300
MEAN_ANOMALY   = 262.3429

EPHEMERIS_TYPE = 0
CLASSIFICATION_TYPE = U
NORAD_CAT_ID   = 67668
ELEMENT_SET_NO = 999
REV_AT_EPOCH   = 284
BSTAR          = -.61363E-2
MEAN_MOTION_DOT = -.1766539E-1
MEAN_MOTION_DDOT = .84308E-3

CCSDS_OMM_VERS = 2.0
CREATION_DATE  = 
ORIGINATOR     = 

OBJECT_NAME    = STARLINK-36639
OBJECT_ID      = 2026-022X
CENTER_NAME    = EARTH
REF_FRAME      = TEME
TIME_SYSTEM    = UTC
MEAN_ELEMENT_THEORY = SGP/SGP4

EPOCH          = 2026-02-12T12:00:01.999296
MEAN_MOTION    = 15.89778549
ECCENTRICITY   = .0001208
INCLINATION    = 97.2795
RA_OF_ASC_NODE = 76.2373
ARG_OF_PERICENTER = 92.2481
MEAN_ANOMALY   = 271.9813

EPHEMERIS_TYPE = 0
CLASSIFICATION_TYPE = U
NORAD_CAT_ID   = 67669
ELEMENT_SET_NO = 999
REV_AT_EPOCH   = 284
BSTAR          = -.60435E-2
MEAN_MOTION_DOT = -.1762998E-1
MEAN_MOTION_DDOT = .84212E-3

CCSDS_OMM_VERS = 2.0
CREATION_DATE  = 
ORIGINATOR     = 

OBJECT_NAME    = STARLINK-36596
OBJECT_ID      = 2026-022Y
CENTER_NAME    = EARTH
REF_FRAME      = TEME
TIME_SYSTEM    = UTC
MEAN_ELEMENT_THEORY = SGP/SGP4

EPOCH          = 2026-02-12T12:00:01.999296
MEAN_MOTION    = 15.89988470
ECCENTRICITY   = .000122
INCLINATION    = 97.2790
RA_OF_ASC_NODE = 76.2388
ARG_OF_PERICENTER = 96.3840
MEAN_ANOMALY   = 272.5406

EPHEMERIS_TYPE = 0
CLASSIFICATION_TYPE = U
NORAD_CAT_ID   = 67670
ELEMENT_SET_NO = 999
REV_AT_EPOCH   = 284
BSTAR          = -.59489E-2
MEAN_MOTION_DOT = -.175386E-1
MEAN_MOTION_DDOT = .83574E-3

CCSDS_OMM_VERS = 2.0
CREATION_DATE  = 
ORIGINATOR     = 

OBJECT_NAME    = STARLINK-36297
OBJECT_ID      = 2026-022Z
CENTER_NAME    = EARTH
REF_FRAME      = TEME
TIME_SYSTEM    = UTC
MEAN_ELEMENT_THEORY = SGP/SGP4

EPOCH          = 2026-02-12T12:00:01.999296
MEAN_MOTION    = 15.90340361
ECCENTRICITY   = .0001242
INCLINATION    = 97.2786
RA_OF_ASC_NODE = 76.2420
ARG_OF_PERICENTER = 87.3342
MEAN_ANOMALY   = 289.4164

EPHEMERIS_TYPE = 0
CLASSIFICATION_TYPE = U
NORAD_CAT_ID   = 67671
ELEMENT_SET_NO = 999
REV_AT_EPOCH   = 284
BSTAR          = -.58226E-2
MEAN_MOTION_DOT = -.1747336E-1
MEAN_MOTION_DDOT = .83285E-3

